[{"OBJECT_NAME":"STARLINK-32767","OBJECT_ID":"2025-008Q","EPOCH":"2026-03-09T00:28:26.906304","MEAN_MOTION":15.27585145,"ECCENTRICITY":0.00012508,"INCLINATION":43.0024,"RA_OF_ASC_NODE":281.5558,"ARG_OF_PERICENTER":271.8016,"MEAN_ANOMALY":88.2692,"EPHEMERIS_TYPE":0,"CLASSIFICATION_TYPE":"U","NORAD_CAT_ID":62601,"ELEMENT_SET_NO":999,"REV_AT_EPOCH":6552,"BSTAR":0.0010823646,"MEAN_MOTION_DOT":0.00029647,"MEAN_MOTION_DDOT":0},{"OBJECT_NAME":"FLOCK 4G-24","OBJECT_ID":"2025-009AE","EPOCH":"2026-03-09T17:24:07.838208","MEAN_MOTION":15.27784978,"ECCENTRICITY":0.0001802,"INCLINATION":97.4061,"RA_OF_ASC_NODE":151.514,"ARG_OF_PERICENTER":280.2808,"MEAN_ANOMALY":79.8228,"EPHEMERIS_TYPE":0,"CLASSIFICATION_TYPE":"U","NORAD_CAT_ID":62637,"ELEMENT_SET_NO":999,"REV_AT_EPOCH":6373,"BSTAR":0.00038996067,"MEAN_MOTION_DOT":0.00010513,"MEAN_MOTION_DDOT":0}]
